CCSDS_OMM_VERS = 2.0
CREATION_DATE  = 
ORIGINATOR     = 

OBJECT_NAME    = STARLINK-36994
OBJECT_ID      = 2026-039M
CENTER_NAME    = EARTH
REF_FRAME      = TEME
TIME_SYSTEM    = UTC
MEAN_ELEMENT_THEORY = SGP/SGP4

EPOCH          = 2026-03-05T04:00:01.999584
MEAN_MOTION    = 15.99112275
ECCENTRICITY   = .0001674
INCLINATION    = 42.9976
RA_OF_ASC_NODE = 82.9673
ARG_OF_PERICENTER = 273.1925
MEAN_ANOMALY   = 137.8350

EPHEMERIS_TYPE = 0
CLASSIFICATION_TYPE = U
NORAD_CAT_ID   = 67997
ELEMENT_SET_NO = 999
REV_AT_EPOCH   = 215
BSTAR          = -.29503E-2
MEAN_MOTION_DOT = -.1488792E-1
MEAN_MOTION_DDOT = .67271E-3

CCSDS_OMM_VERS = 2.0
CREATION_DATE  = 
ORIGINATOR     = 

OBJECT_NAME    = STARLINK-36988
OBJECT_ID      = 2026-039N
CENTER_NAME    = EARTH
REF_FRAME      = TEME
TIME_SYSTEM    = UTC
MEAN_ELEMENT_THEORY = SGP/SGP4

EPOCH          = 2026-03-05T04:00:01.999584
MEAN_MOTION    = 15.98980071
ECCENTRICITY   = .0001772
INCLINATION    = 42.9978
RA_OF_ASC_NODE = 82.9711
ARG_OF_PERICENTER = 268.0007
MEAN_ANOMALY   = 141.5546

EPHEMERIS_TYPE = 0
CLASSIFICATION_TYPE = U
NORAD_CAT_ID   = 67998
ELEMENT_SET_NO = 999
REV_AT_EPOCH   = 215
BSTAR          = -.29798E-2
MEAN_MOTION_DOT = -.1492457E-1
MEAN_MOTION_DDOT = .67481E-3

CCSDS_OMM_VERS = 2.0
CREATION_DATE  = 
ORIGINATOR     = 

OBJECT_NAME    = STARLINK-36926
OBJECT_ID      = 2026-039P
CENTER_NAME    = EARTH
REF_FRAME      = TEME
TIME_SYSTEM    = UTC
MEAN_ELEMENT_THEORY = SGP/SGP4

EPOCH          = 2026-03-05T04:00:01.999584
MEAN_MOTION    = 15.99254425
ECCENTRICITY   = .0001853
INCLINATION    = 42.9978
RA_OF_ASC_NODE = 82.9636
ARG_OF_PERICENTER = 268.8415
MEAN_ANOMALY   = 143.7381

EPHEMERIS_TYPE = 0
CLASSIFICATION_TYPE = U
NORAD_CAT_ID   = 67999
ELEMENT_SET_NO = 999
REV_AT_EPOCH   = 215
BSTAR          = -.29427E-2
MEAN_MOTION_DOT = -.1496929E-1
MEAN_MOTION_DDOT = .68052E-3

CCSDS_OMM_VERS = 2.0
CREATION_DATE  = 
ORIGINATOR     = 

OBJECT_NAME    = STARLINK-36931
OBJECT_ID      = 2026-039Q
CENTER_NAME    = EARTH
REF_FRAME      = TEME
TIME_SYSTEM    = UTC
MEAN_ELEMENT_THEORY = SGP/SGP4

EPOCH          = 2026-03-05T04:00:01.999584
MEAN_MOTION    = 15.99368132
ECCENTRICITY   = .0001752
INCLINATION    = 42.9979
RA_OF_ASC_NODE = 82.9607
ARG_OF_PERICENTER = 270.5293
MEAN_ANOMALY   = 143.2346

EPHEMERIS_TYPE = 0
CLASSIFICATION_TYPE = U
NORAD_CAT_ID   = 68000
ELEMENT_SET_NO = 999
REV_AT_EPOCH   = 215
BSTAR          = -.29094E-2
MEAN_MOTION_DOT = -.1489677E-1
MEAN_MOTION_DDOT = .67529E-3

CCSDS_OMM_VERS = 2.0
CREATION_DATE  = 
ORIGINATOR     = 

OBJECT_NAME    = STARLINK-36903
OBJECT_ID      = 2026-039R
CENTER_NAME    = EARTH
REF_FRAME      = TEME
TIME_SYSTEM    = UTC
MEAN_ELEMENT_THEORY = SGP/SGP4

EPOCH          = 2026-03-05T04:00:01.999584
MEAN_MOTION    = 15.99497797
ECCENTRICITY   = .0001756
INCLINATION    = 42.9980
RA_OF_ASC_NODE = 82.9567
ARG_OF_PERICENTER = 269.0671
MEAN_ANOMALY   = 146.2956

EPHEMERIS_TYPE = 0
CLASSIFICATION_TYPE = U
NORAD_CAT_ID   = 68001
ELEMENT_SET_NO = 999
REV_AT_EPOCH   = 215
BSTAR          = -.28447E-2
MEAN_MOTION_DOT = -.1467606E-1
MEAN_MOTION_DDOT = .65792E-3

CCSDS_OMM_VERS = 2.0
CREATION_DATE  = 
ORIGINATOR     = 

OBJECT_NAME    = STARLINK-36898
OBJECT_ID      = 2026-039S
CENTER_NAME    = EARTH
REF_FRAME      = TEME
TIME_SYSTEM    = UTC
MEAN_ELEMENT_THEORY = SGP/SGP4

EPOCH          = 2026-03-05T04:00:01.999584
MEAN_MOTION    = 15.99747539
ECCENTRICITY   = .0001825
INCLINATION    = 42.9979
RA_OF_ASC_NODE = 82.9487
ARG_OF_PERICENTER = 267.0897
MEAN_ANOMALY   = 151.2905

EPHEMERIS_TYPE = 0
CLASSIFICATION_TYPE = U
NORAD_CAT_ID   = 68002
ELEMENT_SET_NO = 999
REV_AT_EPOCH   = 215
BSTAR          = -.27534E-2
MEAN_MOTION_DOT = -.1441288E-1
MEAN_MOTION_DDOT = .63811E-3

CCSDS_OMM_VERS = 2.0
CREATION_DATE  = 
ORIGINATOR     = 

OBJECT_NAME    = STARLINK-36862
OBJECT_ID      = 2026-039T
CENTER_NAME    = EARTH
REF_FRAME      = TEME
TIME_SYSTEM    = UTC
MEAN_ELEMENT_THEORY = SGP/SGP4

EPOCH          = 2026-03-05T04:00:01.999584
MEAN_MOTION    = 16.00007235
ECCENTRICITY   = .000175
INCLINATION    = 42.9979
RA_OF_ASC_NODE = 82.9417
ARG_OF_PERICENTER = 269.5391
MEAN_ANOMALY   = 151.5925

EPHEMERIS_TYPE = 0
CLASSIFICATION_TYPE = U
NORAD_CAT_ID   = 68003
ELEMENT_SET_NO = 999
REV_AT_EPOCH   = 215
BSTAR          = -.27587E-2
MEAN_MOTION_DOT = -.1465368E-1
MEAN_MOTION_DDOT = .65968E-3

CCSDS_OMM_VERS = 2.0
CREATION_DATE  = 
ORIGINATOR     = 

OBJECT_NAME    = STARLINK-36888
OBJECT_ID      = 2026-039U
CENTER_NAME    = EARTH
REF_FRAME      = TEME
TIME_SYSTEM    = UTC
MEAN_ELEMENT_THEORY = SGP/SGP4

EPOCH          = 2026-03-05T04:00:01.999584
MEAN_MOTION    = 15.99621101
ECCENTRICITY   = .000174
INCLINATION    = 42.9980
RA_OF_ASC_NODE = 82.9530
ARG_OF_PERICENTER = 268.2480
MEAN_ANOMALY   = 148.5816

EPHEMERIS_TYPE = 0
CLASSIFICATION_TYPE = U
NORAD_CAT_ID   = 68004
ELEMENT_SET_NO = 999
REV_AT_EPOCH   = 215
BSTAR          = -.28156E-2
MEAN_MOTION_DOT = -.1462943E-1
MEAN_MOTION_DDOT = .65495E-3

CCSDS_OMM_VERS = 2.0
CREATION_DATE  = 
ORIGINATOR     = 

OBJECT_NAME    = STARLINK-36910
OBJECT_ID      = 2026-039V
CENTER_NAME    = EARTH
REF_FRAME      = TEME
TIME_SYSTEM    = UTC
MEAN_ELEMENT_THEORY = SGP/SGP4

EPOCH          = 2026-03-05T04:00:01.999584
MEAN_MOTION    = 15.99892975
ECCENTRICITY   = .000181
INCLINATION    = 42.9979
RA_OF_ASC_NODE = 82.9451
ARG_OF_PERICENTER = 269.6825
MEAN_ANOMALY   = 150.1588

EPHEMERIS_TYPE = 0
CLASSIFICATION_TYPE = U
NORAD_CAT_ID   = 68005
ELEMENT_SET_NO = 999
REV_AT_EPOCH   = 215
BSTAR          = -.27669E-2
MEAN_MOTION_DOT = -.14602E-1
MEAN_MOTION_DDOT = .6546E-3

CCSDS_OMM_VERS = 2.0
CREATION_DATE  = 
ORIGINATOR     = 

OBJECT_NAME    = STARLINK-36889
OBJECT_ID      = 2026-039W
CENTER_NAME    = EARTH
REF_FRAME      = TEME
TIME_SYSTEM    = UTC
MEAN_ELEMENT_THEORY = SGP/SGP4

EPOCH          = 2026-03-05T04:00:01.999584
MEAN_MOTION    = 16.00132700
ECCENTRICITY   = .0001793
INCLINATION    = 42.9979
RA_OF_ASC_NODE = 82.9380
ARG_OF_PERICENTER = 272.7199
MEAN_ANOMALY   = 149.7634

EPHEMERIS_TYPE = 0
CLASSIFICATION_TYPE = U
NORAD_CAT_ID   = 68006
ELEMENT_SET_NO = 999
REV_AT_EPOCH   = 215
BSTAR          = -.27237E-2
MEAN_MOTION_DOT = -.1457361E-1
MEAN_MOTION_DDOT = .65396E-3

CCSDS_OMM_VERS = 2.0
CREATION_DATE  = 
ORIGINATOR     = 

OBJECT_NAME    = STARLINK-36592
OBJECT_ID      = 2026-039X
CENTER_NAME    = EARTH
REF_FRAME      = TEME
TIME_SYSTEM    = UTC
MEAN_ELEMENT_THEORY = SGP/SGP4

EPOCH          = 2026-03-05T04:00:01.999584
MEAN_MOTION    = 16.00253032
ECCENTRICITY   = .0001802
INCLINATION    = 42.9978
RA_OF_ASC_NODE = 82.9351
ARG_OF_PERICENTER = 269.0690
MEAN_ANOMALY   = 154.7696

EPHEMERIS_TYPE = 0
CLASSIFICATION_TYPE = U
NORAD_CAT_ID   = 68007
ELEMENT_SET_NO = 999
REV_AT_EPOCH   = 215
BSTAR          = -.26985E-2
MEAN_MOTION_DOT = -.1453934E-1
MEAN_MOTION_DDOT = .65198E-3

CCSDS_OMM_VERS = 2.0
CREATION_DATE  = 
ORIGINATOR     = 

OBJECT_NAME    = STARLINK-36911
OBJECT_ID      = 2026-039Y
CENTER_NAME    = EARTH
REF_FRAME      = TEME
TIME_SYSTEM    = UTC
MEAN_ELEMENT_THEORY = SGP/SGP4

EPOCH          = 2026-03-05T04:00:01.999584
MEAN_MOTION    = 16.00350003
ECCENTRICITY   = .0001778
INCLINATION    = 42.9979
RA_OF_ASC_NODE = 82.9313
ARG_OF_PERICENTER = 267.8026
MEAN_ANOMALY   = 157.5042

EPHEMERIS_TYPE = 0
CLASSIFICATION_TYPE = U
NORAD_CAT_ID   = 68008
ELEMENT_SET_NO = 999
REV_AT_EPOCH   = 215
BSTAR          = -.25993E-2
MEAN_MOTION_DOT = -.1408897E-1
MEAN_MOTION_DDOT = .61601E-3

CCSDS_OMM_VERS = 2.0
CREATION_DATE  = 
ORIGINATOR     = 

OBJECT_NAME    = STARLINK-36956
OBJECT_ID      = 2026-039Z
CENTER_NAME    = EARTH
REF_FRAME      = TEME
TIME_SYSTEM    = UTC
MEAN_ELEMENT_THEORY = SGP/SGP4

EPOCH          = 2026-03-05T04:00:01.999584
MEAN_MOTION    = 16.00499852
ECCENTRICITY   = .0001687
INCLINATION    = 42.9978
RA_OF_ASC_NODE = 82.9277
ARG_OF_PERICENTER = 273.1919
MEAN_ANOMALY   = 153.4542

EPHEMERIS_TYPE = 0
CLASSIFICATION_TYPE = U
NORAD_CAT_ID   = 68009
ELEMENT_SET_NO = 999
REV_AT_EPOCH   = 215
BSTAR          = -.26284E-2
MEAN_MOTION_DOT = -.1436684E-1
MEAN_MOTION_DDOT = .63955E-3

CCSDS_OMM_VERS = 2.0
CREATION_DATE  = 
ORIGINATOR     = 

OBJECT_NAME    = STARLINK-36953
OBJECT_ID      = 2026-039AA
CENTER_NAME    = EARTH
REF_FRAME      = TEME
TIME_SYSTEM    = UTC
MEAN_ELEMENT_THEORY = SGP/SGP4

EPOCH          = 2026-03-05T04:00:01.999584
MEAN_MOTION    = 16.00764623
ECCENTRICITY   = .0001708
INCLINATION    = 42.9977
RA_OF_ASC_NODE = 82.9199
ARG_OF_PERICENTER = 268.3442
MEAN_ANOMALY   = 161.3294

EPHEMERIS_TYPE = 0
CLASSIFICATION_TYPE = U
NORAD_CAT_ID   = 68010
ELEMENT_SET_NO = 999
REV_AT_EPOCH   = 215
BSTAR          = -.2598E-2
MEAN_MOTION_DOT = -.1441885E-1
MEAN_MOTION_DDOT = .64567E-3

CCSDS_OMM_VERS = 2.0
CREATION_DATE  = 
ORIGINATOR     = 

OBJECT_NAME    = STARLINK-36991
OBJECT_ID      = 2026-039AB
CENTER_NAME    = EARTH
REF_FRAME      = TEME
TIME_SYSTEM    = UTC
MEAN_ELEMENT_THEORY = SGP/SGP4

EPOCH          = 2026-03-05T04:00:01.999584
MEAN_MOTION    = 16.00904550
ECCENTRICITY   = .0001799
INCLINATION    = 42.9977
RA_OF_ASC_NODE = 82.9164
ARG_OF_PERICENTER = 271.5785
MEAN_ANOMALY   = 159.5508

EPHEMERIS_TYPE = 0
CLASSIFICATION_TYPE = U
NORAD_CAT_ID   = 68011
ELEMENT_SET_NO = 999
REV_AT_EPOCH   = 215
BSTAR          = -.25721E-2
MEAN_MOTION_DOT = -.1439226E-1
MEAN_MOTION_DDOT = .64446E-3

